[
    {
        "amenity": "charging_station",
        "opening_hours": "24/7",
        "id": 1638722815,
        "lat": -31.9362523,
        "lon": 115.8715309,
        "address": "undefined"
    },
    {
        "amenity": "charging_station",
        "brand": "ChargePoint",
        "brand:wikidata": "Q5176149",
        "name": "ChargePoint",
        "operator": "ChargePoint",
        "operator:wikidata": "Q5176149",
        "id": 3203111051,
        "lat": -32.0346555,
        "lon": 115.8348552,
        "address": "undefined"
    },
    {
        "amenity": "charging_station",
        "operator": "Chargefox",
        "operator:wikidata": "Q105775824",
        "id": 8443926799,
        "lat": -31.9480278,
        "lon": 115.8489479,
        "address": "undefined"
    },
    {
        "amenity": "charging_station",
        "capacity": "2",
        "survey:date": "2021-11-13",
        "id": 9247816817,
        "lat": -31.977504,
        "lon": 115.8164108,
        "address": "undefined"
    },
    {
        "amenity": "charging_station",
        "brand": "Tesla Supercharger",
        "brand:wikidata": "Q17089620",
        "brand:wikipedia": "en:Tesla Supercharger",
        "capacity": "6",
        "charge": "51c/kWh $1/min idle fee",
        "covered": "yes",
        "description": "- 6 cables supplied by Tesla, with the standard CCS/SAE plug, with a max output of 250 kW  - 6 \u00d7 250kW Superchargers CCS2 only Enter via Karrinyup Road, follow signs for Fresh Market/Valet. Enter basement, take first Right. Chargers at end of aisle on Rig",
        "fee": "yes",
        "name": "Tesla Supercharger",
        "not:brand:wikidata": "Q478214",
        "operator": "Tesla, Inc.",
        "operator:wikidata": "Q478214",
        "operator:wikipedia": "en:Tesla, Inc.",
        "payment:via_tesla_app": "yes",
        "short_name": "Tesla",
        "socket:type2_combo": "6",
        "socket:type2_combo:output": "250 kW",
        "id": 9273513112,
        "lat": -31.8771547,
        "lon": 115.7766534,
        "address": "undefined"
    },
    {
        "amenity": "charging_station",
        "capacity": "4",
        "socket:type2": "no",
        "id": 9682737335,
        "lat": -32.0584849,
        "lon": 115.7469427,
        "address": "undefined"
    },
    {
        "amenity": "charging_station",
        "brand": "Tesla, Inc.",
        "brand:wikidata": "Q478214",
        "brand:wikipedia": "en:Tesla, Inc.",
        "capacity": "2",
        "description": "Tesla Destination Charger",
        "name": "Tesla Destination Charger",
        "short_name": "Tesla",
        "id": 9682737336,
        "lat": -32.0575795,
        "lon": 115.7461221,
        "address": "undefined"
    },
    {
        "amenity": "charging_station",
        "brand": "Tesla, Inc.",
        "brand:wikidata": "Q478214",
        "brand:wikipedia": "en:Tesla, Inc.",
        "description": "Tesla Destination Charger",
        "name": "Tesla Destination Charger",
        "short_name": "Tesla",
        "id": 9682737337,
        "lat": -32.0573845,
        "lon": 115.7472283,
        "address": "undefined"
    },
    {
        "access": "customers",
        "amenity": "charging_station",
        "id": 10147383653,
        "lat": -31.8763974,
        "lon": 115.7977393,
        "address": "undefined"
    },
    {
        "amenity": "charging_station",
        "capacity": "2",
        "operator": "Synergy",
        "id": 10723068483,
        "lat": -31.9427278,
        "lon": 115.8213346,
        "address": "undefined"
    },
    {
        "access": "customers",
        "amenity": "charging_station",
        "brand": "Tesla",
        "brand:wikidata": "Q478214",
        "brand:wikipedia": "en:Tesla, Inc.",
        "capacity": "2",
        "charging_station:output": "22 kW",
        "covered": "no",
        "opening_hours": "24/7",
        "id": 10925453549,
        "lat": -32.0396948,
        "lon": 115.904494,
        "address": "undefined"
    },
    {
        "amenity": "charging_station",
        "brand": "Tritium",
        "capacity": "2",
        "man_made": "charge_point",
        "socket:ccs:output": "50 kW",
        "socket:chademo:output": "25 kW",
        "id": 11800735919,
        "lat": -32.0077385,
        "lon": 115.8931772,
        "address": "undefined"
    },
    {
        "amenity": "charging_station",
        "brand": "EVlink",
        "fee": "yes",
        "id": 11806155972,
        "lat": -32.041319,
        "lon": 115.763156,
        "address": "undefined"
    },
    {
        "amenity": "charging_station",
        "brand": "Wevolt",
        "capacity": "2",
        "operator": "Wevolt",
        "socket:type2": "2",
        "socket:type2:output": "11kW",
        "id": 12124075972,
        "lat": -31.9361435,
        "lon": 115.8494697,
        "address": "undefined"
    },
    {
        "access": "yes",
        "amenity": "charging_station",
        "brand": "Chargefox",
        "capacity": "4",
        "fee": "yes",
        "name": "RAC - West Perth",
        "operator": "Chargefox",
        "operator:wikidata": "Q105775824",
        "socket:chademo": "2",
        "socket:chademo:output": "350kW",
        "socket:type2_combo": "4",
        "socket:type2_combo:output": "350kW",
        "id": 12162894162,
        "lat": -31.9475775,
        "lon": 115.8489962,
        "address": "undefined"
    }
]